[{"OBJECT_NAME":"QIANFAN-103","OBJECT_ID":"2025-233N","EPOCH":"2026-03-06T14:32:10.959360","MEAN_MOTION":13.51006186,"ECCENTRICITY":0.0001929,"INCLINATION":88.9938,"RA_OF_ASC_NODE":53.5607,"ARG_OF_PERICENTER":91.5752,"MEAN_ANOMALY":268.562,"EPHEMERIS_TYPE":0,"CLASSIFICATION_TYPE":"U","NORAD_CAT_ID":66045,"ELEMENT_SET_NO":999,"REV_AT_EPOCH":1933,"BSTAR":2.7932598e-5,"MEAN_MOTION_DOT":3.0e-7,"MEAN_MOTION_DDOT":0},{"OBJECT_NAME":"QIANFAN-104","OBJECT_ID":"2025-233P","EPOCH":"2026-03-06T14:37:47.613504","MEAN_MOTION":13.51010274,"ECCENTRICITY":0.00020951,"INCLINATION":88.9943,"RA_OF_ASC_NODE":53.4577,"ARG_OF_PERICENTER":85.6535,"MEAN_ANOMALY":274.4855,"EPHEMERIS_TYPE":0,"CLASSIFICATION_TYPE":"U","NORAD_CAT_ID":66046,"ELEMENT_SET_NO":999,"REV_AT_EPOCH":1938,"BSTAR":3.2405307e-5,"MEAN_MOTION_DOT":3.3e-7,"MEAN_MOTION_DDOT":0},{"OBJECT_NAME":"QIANFAN-105","OBJECT_ID":"2025-233Q","EPOCH":"2026-03-06T14:49:35.157792","MEAN_MOTION":13.50981534,"ECCENTRICITY":0.00020659,"INCLINATION":88.9956,"RA_OF_ASC_NODE":53.2863,"ARG_OF_PERICENTER":92.1438,"MEAN_ANOMALY":267.995,"EPHEMERIS_TYPE":0,"CLASSIFICATION_TYPE":"U","NORAD_CAT_ID":66047,"ELEMENT_SET_NO":999,"REV_AT_EPOCH":1949,"BSTAR":4.1611955e-5,"MEAN_MOTION_DOT":3.9e-7,"MEAN_MOTION_DDOT":0},{"OBJECT_NAME":"QIANFAN-106","OBJECT_ID":"2025-233R","EPOCH":"2026-03-06T14:43:57.928224","MEAN_MOTION":13.51005253,"ECCENTRICITY":0.00023868,"INCLINATION":88.9925,"RA_OF_ASC_NODE":53.5318,"ARG_OF_PERICENTER":85.4196,"MEAN_ANOMALY":274.7228,"EPHEMERIS_TYPE":0,"CLASSIFICATION_TYPE":"U","NORAD_CAT_ID":66048,"ELEMENT_SET_NO":999,"REV_AT_EPOCH":1934,"BSTAR":4.2810002e-5,"MEAN_MOTION_DOT":4.0e-7,"MEAN_MOTION_DDOT":0},{"OBJECT_NAME":"QIANFAN-107","OBJECT_ID":"2025-233S","EPOCH":"2026-03-06T13:09:12.605184","MEAN_MOTION":13.51003271,"ECCENTRICITY":0.00019516,"INCLINATION":88.9941,"RA_OF_ASC_NODE":53.5547,"ARG_OF_PERICENTER":90.6266,"MEAN_ANOMALY":269.5109,"EPHEMERIS_TYPE":0,"CLASSIFICATION_TYPE":"U","NORAD_CAT_ID":66049,"ELEMENT_SET_NO":999,"REV_AT_EPOCH":1933,"BSTAR":3.7267308e-5,"MEAN_MOTION_DOT":3.6e-7,"MEAN_MOTION_DDOT":0},{"OBJECT_NAME":"QIANFAN-108","OBJECT_ID":"2025-233T","EPOCH":"2026-03-06T13:15:07.132896","MEAN_MOTION":13.51004757,"ECCENTRICITY":0.00023434,"INCLINATION":88.9934,"RA_OF_ASC_NODE":53.5493,"ARG_OF_PERICENTER":85.019,"MEAN_ANOMALY":275.1229,"EPHEMERIS_TYPE":0,"CLASSIFICATION_TYPE":"U","NORAD_CAT_ID":66050,"ELEMENT_SET_NO":999,"REV_AT_EPOCH":1933,"BSTAR":2.4587956e-5,"MEAN_MOTION_DOT":2.8e-7,"MEAN_MOTION_DDOT":0}]
