QIANFAN-103             
1 66045U 25233N   26065.60568240  .00000030  00000+0  27933-4 0  9996
2 66045  88.9938  53.5607 0001929  91.5752 268.5620 13.51006186 19330
QIANFAN-104             
1 66046U 25233P   26065.60957886  .00000033  00000+0  32405-4 0  9998
2 66046  88.9943  53.4577 0002095  85.6535 274.4855 13.51010274 19384
QIANFAN-105             
1 66047U 25233Q   26065.61776803  .00000039  00000+0  41612-4 0  9994
2 66047  88.9956  53.2863 0002065  92.1438 267.9950 13.50981534 19497
QIANFAN-106             
1 66048U 25233R   26065.61386491  .00000040  00000+0  42810-4 0  9998
2 66048  88.9925  53.5318 0002386  85.4196 274.7228 13.51005253 19348
QIANFAN-107             
1 66049U 25233S   26065.54806256  .00000036  00000+0  37267-4 0  9992
2 66049  88.9941  53.5547 0001951  90.6266 269.5109 13.51003271 19331
QIANFAN-108             
1 66050U 25233T   26065.55216589  .00000028  00000+0  24588-4 0  9992
2 66050  88.9934  53.5493 0002343  85.0190 275.1229 13.51004757 19331
